NUSAT-23 (ANNIE MAUNDER)
1 52168U 22033M   23170.13998427  .00013845  00000+0  47268-3 0  9998
2 52168  97.3535 250.8387 0009136 155.5775 204.5901 15.30392783 67569
MP42                    
1 52169U 22033N   23169.53185222  .00014511  00000+0  48398-3 0  9998
2 52169  97.3562 250.7018 0010859 155.5294 204.6465 15.31120801 67499
HAWK-4C                 
1 52170U 22033P   23169.50179163  .00009721  00000+0  35754-3 0  9993
2 52170  97.3570 249.9925 0011631 150.2079 209.9825 15.28022903 67442
NUSAT-25 (MARIA TELKES) 
1 52171U 22033Q   23170.02125023  .00012869  00000+0  46465-3 0  9997
2 52171  97.3148 249.8489 0010164 141.7946 218.4016 15.28571692 67649
NUSAT-27 (SALLY RIDE)   
1 52172U 22033R   23170.01910419  .00018259  00000+0  53606-3 0  9992
2 52172  97.3080 250.8807 0010474 135.2837 224.9253 15.35144217 67723
SHAKUNTALA              
1 52173U 22033S   23170.14336714  .00039979  00000+0  91705-3 0  9991
2 52173  97.3606 254.2093 0010116 146.6700 213.5187 15.42573841 67762
BRO-7                   
1 52174U 22033T   23170.15367432  .00009520  00000+0  34314-3 0  9996
2 52174  97.3565 251.0632 0013037 144.8563 215.3539 15.28675674 67574
BDSAT                   
1 52175U 22033U   23169.74365186  .00029116  00000+0  75912-3 0  9996
2 52175  97.3566 252.9087 0010888 142.5744 217.6262 15.38742927 67651
SPACEBEE-130            
1 52176U 22033V   23169.19012150  .00084605  00000+0  13774-2 0  9997
2 52176  97.3466 253.8227 0005678 169.7467 190.3903 15.52343416 67678
SPACEBEE-139            
1 52177U 22033W   23169.49163671  .00075035  00000+0  13214-2 0  9992
2 52177  97.3485 253.6808 0007275 160.6482 199.5047 15.50155926 67704
NUSAT-24 (KALPANA CHAW*)
1 52178U 22033X   23170.13236355  .00012150  00000+0  46454-3 0  9998
2 52178  97.3170 250.0159 0010060 152.3267 207.8509 15.26693304 67651
SPACEBEE-129            
1 52179U 22033Y   23169.18563236  .00068138  00000+0  12604-2 0  9999
2 52179  97.3460 253.0885 0006754 163.2100 196.9376 15.48784116 67640
SPACEBEE-134            
1 52180U 22033Z   23169.99833358  .00064853  00000+0  12248-2 0  9999
2 52180  97.3450 253.6370 0006747 160.9740 199.1764 15.48200719 67730
SPACEBEE-131            
1 52181U 22033AA  23169.69941984  .00068792  00000+0  12884-2 0  9994
2 52181  97.3469 253.6381 0006830 161.2911 198.8592 15.48424033 67721
