[{
    "OBJECT_NAME": "NUSAT-23 (ANNIE MAUNDER)",
    "OBJECT_ID": "2022-033M",
    "EPOCH": "2023-06-19T03:21:34.640928",
    "MEAN_MOTION": 15.30392783,
    "ECCENTRICITY": 0.0009136,
    "INCLINATION": 97.3535,
    "RA_OF_ASC_NODE": 250.8387,
    "ARG_OF_PERICENTER": 155.5775,
    "MEAN_ANOMALY": 204.5901,
    "EPHEMERIS_TYPE": 0,
    "CLASSIFICATION_TYPE": "U",
    "NORAD_CAT_ID": 52168,
    "ELEMENT_SET_NO": 999,
    "REV_AT_EPOCH": 6756,
    "BSTAR": 0.00047268,
    "MEAN_MOTION_DOT": 0.00013845,
    "MEAN_MOTION_DDOT": 0
},{
    "OBJECT_NAME": "MP42",
    "OBJECT_ID": "2022-033N",
    "EPOCH": "2023-06-18T12:45:52.031808",
    "MEAN_MOTION": 15.31120801,
    "ECCENTRICITY": 0.0010859,
    "INCLINATION": 97.3562,
    "RA_OF_ASC_NODE": 250.7018,
    "ARG_OF_PERICENTER": 155.5294,
    "MEAN_ANOMALY": 204.6465,
    "EPHEMERIS_TYPE": 0,
    "CLASSIFICATION_TYPE": "U",
    "NORAD_CAT_ID": 52169,
    "ELEMENT_SET_NO": 999,
    "REV_AT_EPOCH": 6749,
    "BSTAR": 0.00048398,
    "MEAN_MOTION_DOT": 0.00014511,
    "MEAN_MOTION_DDOT": 0
},{
    "OBJECT_NAME": "HAWK-4C",
    "OBJECT_ID": "2022-033P",
    "EPOCH": "2023-06-18T12:02:34.796832",
    "MEAN_MOTION": 15.28022903,
    "ECCENTRICITY": 0.0011631,
    "INCLINATION": 97.357,
    "RA_OF_ASC_NODE": 249.9925,
    "ARG_OF_PERICENTER": 150.2079,
    "MEAN_ANOMALY": 209.9825,
    "EPHEMERIS_TYPE": 0,
    "CLASSIFICATION_TYPE": "U",
    "NORAD_CAT_ID": 52170,
    "ELEMENT_SET_NO": 999,
    "REV_AT_EPOCH": 6744,
    "BSTAR": 0.00035754,
    "MEAN_MOTION_DOT": 9.721e-5,
    "MEAN_MOTION_DDOT": 0
},{
    "OBJECT_NAME": "NUSAT-25 (MARIA TELKES)",
    "OBJECT_ID": "2022-033Q",
    "EPOCH": "2023-06-19T00:30:36.019872",
    "MEAN_MOTION": 15.28571692,
    "ECCENTRICITY": 0.0010164,
    "INCLINATION": 97.3148,
    "RA_OF_ASC_NODE": 249.8489,
    "ARG_OF_PERICENTER": 141.7946,
    "MEAN_ANOMALY": 218.4016,
    "EPHEMERIS_TYPE": 0,
    "CLASSIFICATION_TYPE": "U",
    "NORAD_CAT_ID": 52171,
    "ELEMENT_SET_NO": 999,
    "REV_AT_EPOCH": 6764,
    "BSTAR": 0.00046465,
    "MEAN_MOTION_DOT": 0.00012869,
    "MEAN_MOTION_DDOT": 0
},{
    "OBJECT_NAME": "NUSAT-27 (SALLY RIDE)",
    "OBJECT_ID": "2022-033R",
    "EPOCH": "2023-06-19T00:27:30.602016",
    "MEAN_MOTION": 15.35144217,
    "ECCENTRICITY": 0.0010474,
    "INCLINATION": 97.308,
    "RA_OF_ASC_NODE": 250.8807,
    "ARG_OF_PERICENTER": 135.2837,
    "MEAN_ANOMALY": 224.9253,
    "EPHEMERIS_TYPE": 0,
    "CLASSIFICATION_TYPE": "U",
    "NORAD_CAT_ID": 52172,
    "ELEMENT_SET_NO": 999,
    "REV_AT_EPOCH": 6772,
    "BSTAR": 0.00053606,
    "MEAN_MOTION_DOT": 0.00018259,
    "MEAN_MOTION_DDOT": 0
},{
    "OBJECT_NAME": "SHAKUNTALA",
    "OBJECT_ID": "2022-033S",
    "EPOCH": "2023-06-19T03:26:26.920896",
    "MEAN_MOTION": 15.42573841,
    "ECCENTRICITY": 0.0010116,
    "INCLINATION": 97.3606,
    "RA_OF_ASC_NODE": 254.2093,
    "ARG_OF_PERICENTER": 146.67,
    "MEAN_ANOMALY": 213.5187,
    "EPHEMERIS_TYPE": 0,
    "CLASSIFICATION_TYPE": "U",
    "NORAD_CAT_ID": 52173,
    "ELEMENT_SET_NO": 999,
    "REV_AT_EPOCH": 6776,
    "BSTAR": 0.00091705,
    "MEAN_MOTION_DOT": 0.00039979,
    "MEAN_MOTION_DDOT": 0
},{
    "OBJECT_NAME": "BRO-7",
    "OBJECT_ID": "2022-033T",
    "EPOCH": "2023-06-19T03:41:17.461248",
    "MEAN_MOTION": 15.28675674,
    "ECCENTRICITY": 0.0013037,
    "INCLINATION": 97.3565,
    "RA_OF_ASC_NODE": 251.0632,
    "ARG_OF_PERICENTER": 144.8563,
    "MEAN_ANOMALY": 215.3539,
    "EPHEMERIS_TYPE": 0,
    "CLASSIFICATION_TYPE": "U",
    "NORAD_CAT_ID": 52174,
    "ELEMENT_SET_NO": 999,
    "REV_AT_EPOCH": 6757,
    "BSTAR": 0.00034314,
    "MEAN_MOTION_DOT": 9.52e-5,
    "MEAN_MOTION_DDOT": 0
},{
    "OBJECT_NAME": "BDSAT",
    "OBJECT_ID": "2022-033U",
    "EPOCH": "2023-06-18T17:50:51.520704",
    "MEAN_MOTION": 15.38742927,
    "ECCENTRICITY": 0.0010888,
    "INCLINATION": 97.3566,
    "RA_OF_ASC_NODE": 252.9087,
    "ARG_OF_PERICENTER": 142.5744,
    "MEAN_ANOMALY": 217.6262,
    "EPHEMERIS_TYPE": 0,
    "CLASSIFICATION_TYPE": "U",
    "NORAD_CAT_ID": 52175,
    "ELEMENT_SET_NO": 999,
    "REV_AT_EPOCH": 6765,
    "BSTAR": 0.00075912,
    "MEAN_MOTION_DOT": 0.00029116,
    "MEAN_MOTION_DDOT": 0
},{
    "OBJECT_NAME": "SPACEBEE-130",
    "OBJECT_ID": "2022-033V",
    "EPOCH": "2023-06-18T04:33:46.497600",
    "MEAN_MOTION": 15.52343416,
    "ECCENTRICITY": 0.0005678,
    "INCLINATION": 97.3466,
    "RA_OF_ASC_NODE": 253.8227,
    "ARG_OF_PERICENTER": 169.7467,
    "MEAN_ANOMALY": 190.3903,
    "EPHEMERIS_TYPE": 0,
    "CLASSIFICATION_TYPE": "U",
    "NORAD_CAT_ID": 52176,
    "ELEMENT_SET_NO": 999,
    "REV_AT_EPOCH": 6767,
    "BSTAR": 0.0013774,
    "MEAN_MOTION_DOT": 0.00084605,
    "MEAN_MOTION_DDOT": 0
},{
    "OBJECT_NAME": "SPACEBEE-139",
    "OBJECT_ID": "2022-033W",
    "EPOCH": "2023-06-18T11:47:57.411744",
    "MEAN_MOTION": 15.50155926,
    "ECCENTRICITY": 0.0007275,
    "INCLINATION": 97.3485,
    "RA_OF_ASC_NODE": 253.6808,
    "ARG_OF_PERICENTER": 160.6482,
    "MEAN_ANOMALY": 199.5047,
    "EPHEMERIS_TYPE": 0,
    "CLASSIFICATION_TYPE": "U",
    "NORAD_CAT_ID": 52177,
    "ELEMENT_SET_NO": 999,
    "REV_AT_EPOCH": 6770,
    "BSTAR": 0.0013214,
    "MEAN_MOTION_DOT": 0.00075035,
    "MEAN_MOTION_DDOT": 0
},{
    "OBJECT_NAME": "NUSAT-24 (KALPANA CHAWLA)",
    "OBJECT_ID": "2022-033X",
    "EPOCH": "2023-06-19T03:10:36.210720",
    "MEAN_MOTION": 15.26693304,
    "ECCENTRICITY": 0.001006,
    "INCLINATION": 97.317,
    "RA_OF_ASC_NODE": 250.0159,
    "ARG_OF_PERICENTER": 152.3267,
    "MEAN_ANOMALY": 207.8509,
    "EPHEMERIS_TYPE": 0,
    "CLASSIFICATION_TYPE": "U",
    "NORAD_CAT_ID": 52178,
    "ELEMENT_SET_NO": 999,
    "REV_AT_EPOCH": 6765,
    "BSTAR": 0.00046454,
    "MEAN_MOTION_DOT": 0.0001215,
    "MEAN_MOTION_DDOT": 0
},{
    "OBJECT_NAME": "SPACEBEE-129",
    "OBJECT_ID": "2022-033Y",
    "EPOCH": "2023-06-18T04:27:18.635904",
    "MEAN_MOTION": 15.48784116,
    "ECCENTRICITY": 0.0006754,
    "INCLINATION": 97.346,
    "RA_OF_ASC_NODE": 253.0885,
    "ARG_OF_PERICENTER": 163.21,
    "MEAN_ANOMALY": 196.9376,
    "EPHEMERIS_TYPE": 0,
    "CLASSIFICATION_TYPE": "U",
    "NORAD_CAT_ID": 52179,
    "ELEMENT_SET_NO": 999,
    "REV_AT_EPOCH": 6764,
    "BSTAR": 0.0012604,
    "MEAN_MOTION_DOT": 0.00068138,
    "MEAN_MOTION_DDOT": 0
},{
    "OBJECT_NAME": "SPACEBEE-134",
    "OBJECT_ID": "2022-033Z",
    "EPOCH": "2023-06-18T23:57:36.021312",
    "MEAN_MOTION": 15.48200719,
    "ECCENTRICITY": 0.0006747,
    "INCLINATION": 97.345,
    "RA_OF_ASC_NODE": 253.637,
    "ARG_OF_PERICENTER": 160.974,
    "MEAN_ANOMALY": 199.1764,
    "EPHEMERIS_TYPE": 0,
    "CLASSIFICATION_TYPE": "U",
    "NORAD_CAT_ID": 52180,
    "ELEMENT_SET_NO": 999,
    "REV_AT_EPOCH": 6773,
    "BSTAR": 0.0012248,
    "MEAN_MOTION_DOT": 0.00064853,
    "MEAN_MOTION_DDOT": 0
},{
    "OBJECT_NAME": "SPACEBEE-131",
    "OBJECT_ID": "2022-033AA",
    "EPOCH": "2023-06-18T16:47:09.874176",
    "MEAN_MOTION": 15.48424033,
    "ECCENTRICITY": 0.000683,
    "INCLINATION": 97.3469,
    "RA_OF_ASC_NODE": 253.6381,
    "ARG_OF_PERICENTER": 161.2911,
    "MEAN_ANOMALY": 198.8592,
    "EPHEMERIS_TYPE": 0,
    "CLASSIFICATION_TYPE": "U",
    "NORAD_CAT_ID": 52181,
    "ELEMENT_SET_NO": 999,
    "REV_AT_EPOCH": 6772,
    "BSTAR": 0.0012884,
    "MEAN_MOTION_DOT": 0.00068792,
    "MEAN_MOTION_DDOT": 0
}]